GSAT0101 (PRN E11)      
1 37846U 11060A   23364.02704859 -.00000085  00000+0  00000+0 0  9991
2 37846  57.1216   6.1372 0002820 323.5460  36.4566  1.70476026 75775
GSAT0102 (PRN E12)      
1 37847U 11060B   23364.84585028 -.00000083  00000+0  00000+0 0  9995
2 37847  57.1224   6.1150 0004725 310.8202 237.7226  1.70475453 75792
GSAT0103 (PRN E19)      
1 38857U 12055A   23364.06613337  .00000010  00000+0  00000+0 0  9990
2 38857  55.3338 126.2834 0003137 245.2018 114.7226  1.70473600 69806
GSAT0104 (PRN E20)      
1 38858U 12055B   23362.86225362  .00000003  00000+0  00000+0 0  9996
2 38858  55.3334 126.3179 0001442 187.1245 172.8233  1.70473785 69648
GSAT0201 (PRN E18)      
1 40128U 14050A   23363.22669266 -.00000093  00000+0  00000+0 0  9992
2 40128  49.8278 309.9282 1605743 144.7280 227.0671  1.85519682 61603
GSAT0202 (PRN E14)      
1 40129U 14050B   23364.56363337 -.00000090  00000+0  00000+0 0  9998
2 40129  49.8445 308.9485 1603939 145.5848 225.9600  1.85520386 63792
GSAT0203 (PRN E26)      
1 40544U 15017A   23364.39284806 -.00000084  00000+0  00000+0 0  9990
2 40544  56.9169   6.0842 0005555 267.3341  92.6236  1.70476069 53861
GSAT0204 (PRN E22)      
1 40545U 15017B   23365.23339453 -.00000082  00000+0  00000+0 0  9992
2 40545  56.9233   6.0761 0005171 257.6664 102.2968  1.70475742 54541
GSAT0205 (PRN E24)      
1 40889U 15045A   23364.41541545  .00000023  00000+0  00000+0 0  9994
2 40889  55.2995 246.4633 0005873  28.3359 331.7874  1.70473217 51671
GSAT0206 (PRN E30)      
1 40890U 15045B   23362.87633683  .00000024  00000+0  00000+0 0  9990
2 40890  55.2994 246.5012 0004390  32.6088 327.5130  1.70473062 51670
GSAT0209 (PRN E09)      
1 41174U 15079A   23364.80651523  .00000014  00000+0  00000+0 0  9990
2 41174  55.3519 125.9709 0002122 314.9647  44.9800  1.70474774 50024
GSAT0208 (PRN E08)      
1 41175U 15079B   23363.85301602  .00000008  00000+0  00000+0 0  9998
2 41175  55.3497 125.9951 0001360 314.0496  45.8952  1.70474613 49843
GSAT0211 (PRN E02)      
1 41549U 16030A   23363.97525972  .00000023  00000+0  00000+0 0  9999
2 41549  55.4448 246.4638 0004790  20.8967 339.2155  1.70473180 47303
GSAT0210 (PRN E01)      
1 41550U 16030B   23364.26652211  .00000023  00000+0  00000+0 0  9991
2 41550  55.4455 246.4568 0002299 335.8220  24.2591  1.70473551 47327
GSAT0207 (PRN E07)      
1 41859U 16069A   23363.92710680  .00000008  00000+0  00000+0 0  9995
2 41859  55.0150 126.0383 0002312 287.7730  72.1581  1.70474755 44057
GSAT0212 (PRN E03)      
1 41860U 16069B   23364.95478752  .00000014  00000+0  00000+0 0  9999
2 41860  55.0132 126.0065 0001104 358.0381   1.9240  1.70474923 44327
GSAT0213 (PRN E04)      
1 41861U 16069C   23364.73521039  .00000013  00000+0  00000+0 0  9992
2 41861  55.0148 126.0188 0002851 254.7630 105.1667  1.70473516 44181
GSAT0214 (PRN E05)      
1 41862U 16069D   23363.70885026  .00000007  00000+0  00000+0 0  9991
2 41862  55.0135 126.0412 0001944 250.1374 109.7967  1.70475469 44299
GSAT0215 (PRN E21)      
1 43055U 17079A   23363.02491544  .00000024  00000+0  00000+0 0  9991
2 43055  55.4234 246.3142 0001683 340.5581  19.5302  1.70473920 37629
GSAT0216 (PRN E25)      
1 43056U 17079B   23363.90330325  .00000023  00000+0  00000+0 0  9997
2 43056  55.4235 246.2898 0003360 308.2336  51.8291  1.70474145 37650
GSAT0217 (PRN E27)      
1 43057U 17079C   23363.53716728  .00000023  00000+0  00000+0 0  9992
2 43057  55.4216 246.2989 0003083 347.2405  12.8455  1.70474012 37633
GSAT0218 (PRN E31)      
1 43058U 17079D   23364.34374848  .00000023  00000+0  00000+0 0  9996
2 43058  55.4209 246.2741 0003371 304.3387  55.7212  1.70474020 37675
GSAT0221 (PRN E15)      
1 43564U 18060A   23364.24325772 -.00000084  00000+0  00000+0 0  9998
2 43564  57.2972   6.0459 0005949 279.9546  79.9996  1.70475958 33820
GSAT0222 (PRN E33)      
1 43565U 18060B   23362.11516974 -.00000089  00000+0  00000+0 0  9994
2 43565  57.3007   6.1048 0005127 257.3887 102.5786  1.70475659 33831
GSAT0219 (PRN E36)      
1 43566U 18060C   23364.09708560 -.00000084  00000+0  00000+0 0  9993
2 43566  57.2998   6.0533 0005174 286.5411  73.4235  1.70475938 33843
GSAT0220 (PRN E13)      
1 43567U 18060D   23364.31758571 -.00000084  00000+0  00000+0 0  9996
2 43567  57.2999   6.0474 0005450 282.3815  77.5788  1.70476001 33837
GSAT0223 (PRN E34)      
1 49809U 21116A   23364.76241605 -.00000082  00000+0  00000+0 0  9999
2 49809  57.2909   5.9308 0003505 245.6443 117.6681  1.70476138 12853
GSAT0224 (PRN E10)      
1 49810U 21116B   23364.86197014 -.00000082  00000+0  00000+0 0  9996
2 49810  57.2921   5.9264 0002838 253.3336 283.5689  1.70476148 12868
